[{"OBJECT_NAME":"ONEWEB-0119","OBJECT_ID":"2020-100H","EPOCH":"2026-03-09T20:50:03.312960","MEAN_MOTION":13.12443692,"ECCENTRICITY":0.00018329,"INCLINATION":87.8993,"RA_OF_ASC_NODE":10.3896,"ARG_OF_PERICENTER":79.5149,"MEAN_ANOMALY":280.6186,"EPHEMERIS_TYPE":0,"CLASSIFICATION_TYPE":"U","NORAD_CAT_ID":47265,"ELEMENT_SET_NO":999,"REV_AT_EPOCH":25167,"BSTAR":-0.00083717498,"MEAN_MOTION_DOT":-2.88e-6,"MEAN_MOTION_DDOT":0},{"OBJECT_NAME":"COSMOS 839 DEB","OBJECT_ID":"1976-067AM","EPOCH":"2026-03-09T20:46:32.528064","MEAN_MOTION":12.63020635,"ECCENTRICITY":0.07008531,"INCLINATION":65.7986,"RA_OF_ASC_NODE":264.2188,"ARG_OF_PERICENTER":176.3288,"MEAN_ANOMALY":184.3265,"EPHEMERIS_TYPE":0,"CLASSIFICATION_TYPE":"U","NORAD_CAT_ID":10613,"ELEMENT_SET_NO":999,"REV_AT_EPOCH":27673,"BSTAR":0.0012208349,"MEAN_MOTION_DOT":5.15e-6,"MEAN_MOTION_DDOT":0}]
